SL-16 R/B               
1 28353U 04021B   25216.71985732 -.00000020  00000+0  14230-4 0  9992
2 28353  71.0021 327.8079 0005140 344.8181  15.2786 14.14550594 92153
CZ-4B R/B               
1 28415U 04035C   25216.52673570  .00006582  00000+0  26348-3 0  9999
2 28415  97.3777 248.7139 0035632  19.7730 340.4880 15.24805669146770
CZ-2C R/B               
1 28480U 04046B   25216.39078712  .00000164  00000+0  75733-4 0  9998
2 28480  98.1916 139.9450 0140951  77.5652 284.1262 14.26851006 77519
ARIANE 5 R/B            
1 28499U 04049H   25216.45468500  .00000612  00000+0  75317-4 0  9992
2 28499  98.2398  12.2064 0084644 335.7866  23.9379 14.84597012113551
CZ-2D R/B               
1 28738U 05024B   25216.74184750  .00019377  00000+0  40625-3 0  9997
2 28738  97.3692 221.5190 0008413 102.1029 258.1163 15.45407492106146
ALOS (DAICHI)           
1 28931U 06002A   25216.81516992  .00001531  00000+0  27034-3 0  9996
2 28931  98.0868 169.4504 0000745  94.2943 265.8348 14.68862789 42012
H-2A R/B                
1 28932U 06002B   25216.75647657  .00006784  00000+0  38968-3 0  9996
2 28932  98.2168 341.3744 0056903 257.0236 102.4634 15.11509985 61713
RESURS-DK 1             
1 29228U 06021A   25216.60285233  .00002163  00000+0  13487-3 0  9994
2 29228  69.9332  77.8792 0001779  96.9000 263.2367 15.11182884 54710
CZ-4B R/B               
1 29507U 06046C   25216.58327083  .00003974  00000+0  21853-3 0  9995
2 29507  97.5928 257.0728 0033740 299.3911  60.3953 15.14188226 27167
CZ-2C R/B               
1 31114U 07010B   25216.30828633  .00000118  00000+0  73313-4 0  9997
2 31114  98.3843 335.6292 0058611 205.2835 154.5471 14.20142449948866
COSMO-SKYMED 1          
1 31598U 07023A   25216.88544188  .00000560  00000+0  57111-4 0  9999
2 31598  97.8889  41.5274 0001373  86.1669 273.9708 14.94625814982560
GENESIS 2               
1 31789U 07028A   25216.55528856  .00220255  25541-4  59152-3 0  9997
2 31789  64.4662 214.8172 0024197 300.8031  59.0747 15.93675146  1797
COSMOS 2428             
1 31792U 07029A   25216.61254115  .00000176  00000+0  12041-3 0  9995
2 31792  70.9442 299.0265 0005197 232.5288 127.5361 14.12897629933510
SL-16 R/B               
1 31793U 07029B   25216.88440953 -.00000267  00000+0 -11365-3 0  9993
2 31793  70.9741 268.1094 0002709 278.0367 254.5266 14.14788961934795
KORONAS-FOTON           
1 33504U 09003A   25216.79128905  .00008485  00000+0  22923-3 0  9999
2 33504  82.4339 140.3091 0010746 205.3086 154.7633 15.37520144912481
CZ-2C R/B               
1 37731U 11030B   25216.50791916  .00001460  00000+0  19399-3 0  9994
2 37731  97.8180 173.7352 0052871 338.6967 136.0250 14.80334776757952
H-2A R/B                
1 38341U 12025E   25216.42148786  .00002061  00000+0  19956-3 0  9996
2 38341  98.4380 161.9181 0044997 303.9821  55.7124 14.93275494715778
SHIJIAN-16 (SJ-16)      
1 39358U 13057A   25216.89159360  .00000796  00000+0  82230-4 0  9991
2 39358  74.9697 235.2177 0018357 279.2106  80.7005 14.91478965639248
SL-4 R/B                
1 39679U 14021B   25216.60659020  .00008583  00000+0  23317-3 0  9998
2 39679  51.6097 310.7381 0111417  35.4948 325.3381 15.32401508622919
ALOS-2                  
1 39766U 14029A   25216.75267781  .00000977  00000+0  13760-3 0  9998
2 39766  97.9229 313.4599 0001503  98.3713 261.7669 14.79485014604825
YAOGAN-29               
1 41038U 15069A   25216.78161548  .00000462  00000+0  63964-4 0  9996
2 41038  98.0338 239.4279 0001510  31.5217 328.6086 14.82686410523734
ASTRO-H (HITOMI)        
1 41337U 16012A   25216.55932517  .00002751  00000+0  16724-3 0  9998
2 41337  31.0011 315.8487 0009878 311.8086  48.1708 15.08278989519405
HXMT (HUIYAN)           
1 42758U 17034A   25216.85928997  .00005008  00000+0  27738-3 0  9996
2 42758  43.0140 139.1965 0035403 305.2988  54.4550 15.14256652449652
CZ-2C R/B               
1 43521U 18054D   25216.59531546  .00030007  00000+0  41967-3 0  9996
2 43521  35.1391 328.4954 0031275 349.0005  11.0036 15.55218701394689
SAOCOM 1A               
1 43641U 18076A   25216.64651704  .00000430  00000+0  60574-4 0  9991
2 43641  97.8896  42.9269 0001385  91.0640 269.0732 14.82161860369213
H-2A R/B                
1 43682U 18084L   25216.45363673  .00012136  00000+0  39215-3 0  9992
2 43682  98.8804  24.2100 0031803  52.9647 307.4491 15.31805552372420
SAOCOM 1B               
1 46265U 20059A   25216.81283129  .00000427  00000+0  60219-4 0  9993
2 46265  97.8901  42.1955 0001417  90.7997 269.3378 14.82151923266636
CSS (TIANHE)            
1 48274U 21035A   25216.91215712  .00021711  00000+0  29030-3 0  9998
2 48274  41.4650  85.3842 0004650  67.1214 293.0114 15.57510393243753
COSMOS 2550             
1 48865U 21056A   25216.83257581  .00004374  00000+0  13867-3 0  9995
2 48865  67.1437 336.9481 0008402 270.2825  89.7367 15.33836219230214
CZ-2C R/B               
1 52794U 22058K   25216.75676541  .00015108  00000+0  34589-3 0  9997
2 52794  50.1944 342.3526 0055006  15.6361 344.6288 15.41380164176546
GSLV R/B                
1 54149U 22138AN  25216.51437877  .00001965  00000+0  17646-3 0  9994
2 54149  87.3762 239.0711 0020679 214.3910 145.5983 14.95024253151462
XRISM                   
1 57800U 23137A   25216.75338850  .00003246  00000+0  19737-3 0  9995
2 57800  31.0011 243.5025 0007868  20.3992 339.6959 15.08484086105052
ACS3                    
1 59588U 24077B   25216.50893157  .00012859  00000+0  12260-1 0  9995
2 59588  97.4287 200.5130 0072978  37.2928 323.3265 13.79470938 64150
